ONEWEB-0311             
1 49097U 21075Y   26144.85931095 -.00000004  00000+0 -43821-4 0  9998
2 49097  87.9158  10.5017 0002208  90.8022 269.3363 13.17648066230555
ONEWEB-0312             
1 49098U 21075Z   26144.87450163 -.00000003  00000+0 -40413-4 0  9996
2 49098  87.9154  10.5099 0001859  94.6505 265.4839 13.17649032230538
ONEWEB-0313             
1 49099U 21075AA  26144.65162093  .00000032  00000+0  48837-4 0  9993
2 49099  87.9151  10.5604 0001918  86.8537 273.2814 13.17650902230495
ONEWEB-0314             
1 49100U 21075AB  26144.92175828  .00000047  00000+0  88138-4 0  9990
2 49100  87.9163  10.4767 0001903  96.2852 263.8496 13.17649319230502
ONEWEB-0315             
1 49101U 21075AC  26144.95617390  .00000359  00000+0  96381-3 0  9993
2 49101  87.8959 355.2640 0002165  88.7718 271.3659 13.12441421232127
ONEWEB-0316             
1 49102U 21075AD  26144.94060605  .00000017  00000+0  10882-4 0  9998
2 49102  87.9160 340.0842 0001898  89.9763 270.1587 13.18685075234146
ONEWEB-0317             
1 49103U 21075AE  26144.95956003  .00000445  00000+0  12018-2 0  9992
2 49103  87.8961 355.2870 0001076  79.9481 280.1769 13.12441500232146
ONEWEB-0318             
1 49104U 21075AF  26144.93723162 -.00000032  00000+0 -11515-3 0  9995
2 49104  87.9169 340.0842 0002094  90.3247 269.8125 13.18685317234107
ONEWEB-0319             
1 49105U 21075AG  26144.86099004 -.00000003  00000+0 -40561-4 0  9991
2 49105  87.9153  10.5071 0002354  86.5060 273.6340 13.17651637230535
ONEWEB-0323             
1 49106U 21075AH  26144.94092424  .00000066  00000+0  14921-3 0  9997
2 49106  87.8961 355.2719 0002299  93.3505 266.7886 13.12442662231505
ONEWEB-0329             
1 49107U 21075AJ  26144.86943231  .00000018  00000+0  12898-4 0  9999
2 49107  87.9155  10.5061 0001859  89.3054 270.8290 13.17650650230516
ONEWEB-0330             
1 49108U 21075AK  26144.89321503  .00000008  00000+0 -12966-4 0  9991
2 49108  87.9156  10.5212 0001728  92.0404 268.0926 13.17648002230558
ONEWEB-0292             
1 49186U 21083A   26144.93138010  .00000045  00000+0  87839-4 0  9991
2 49186  87.8929 324.8736 0001998  92.1095 268.0263 13.13469047227870
ONEWEB-0303             
1 49187U 21083B   26144.93386218 -.00000027  00000+0 -10146-3 0  9995
2 49187  87.9165 340.0849 0002001  90.7859 269.3503 13.18685187226912
ONEWEB-0306             
1 49188U 21083C   26144.92374383 -.00000004  00000+0 -44125-4 0  9995
2 49188  87.9170 340.0735 0001599  87.9565 272.1750 13.18685649226959
ONEWEB-0307             
1 49189U 21083D   26144.92546310 -.00000114  00000+0 -34670-3 0  9992
2 49189  87.8940 324.8697 0001907  94.4126 265.7221 13.13469273227871
