[{"OBJECT_NAME":"ONEWEB-0311","OBJECT_ID":"2021-075Y","EPOCH":"2026-05-24T20:37:24.466080","MEAN_MOTION":13.17648066,"ECCENTRICITY":0.0002208,"INCLINATION":87.9158,"RA_OF_ASC_NODE":10.5017,"ARG_OF_PERICENTER":90.8022,"MEAN_ANOMALY":269.3363,"EPHEMERIS_TYPE":0,"CLASSIFICATION_TYPE":"U","NORAD_CAT_ID":49097,"ELEMENT_SET_NO":999,"REV_AT_EPOCH":23055,"BSTAR":-4.3821e-05,"MEAN_MOTION_DOT":-4e-08,"MEAN_MOTION_DDOT":0.0},{"OBJECT_NAME":"ONEWEB-0312","OBJECT_ID":"2021-075Z","EPOCH":"2026-05-24T20:59:16.940832","MEAN_MOTION":13.17649032,"ECCENTRICITY":0.0001859,"INCLINATION":87.9154,"RA_OF_ASC_NODE":10.5099,"ARG_OF_PERICENTER":94.6505,"MEAN_ANOMALY":265.4839,"EPHEMERIS_TYPE":0,"CLASSIFICATION_TYPE":"U","NORAD_CAT_ID":49098,"ELEMENT_SET_NO":999,"REV_AT_EPOCH":23053,"BSTAR":-4.0413e-05,"MEAN_MOTION_DOT":-3e-08,"MEAN_MOTION_DDOT":0.0},{"OBJECT_NAME":"ONEWEB-0313","OBJECT_ID":"2021-075AA","EPOCH":"2026-05-24T15:38:20.048352","MEAN_MOTION":13.17650902,"ECCENTRICITY":0.0001918,"INCLINATION":87.9151,"RA_OF_ASC_NODE":10.5604,"ARG_OF_PERICENTER":86.8537,"MEAN_ANOMALY":273.2814,"EPHEMERIS_TYPE":0,"CLASSIFICATION_TYPE":"U","NORAD_CAT_ID":49099,"ELEMENT_SET_NO":999,"REV_AT_EPOCH":23049,"BSTAR":4.883700000000001e-05,"MEAN_MOTION_DOT":3.2e-07,"MEAN_MOTION_DDOT":0.0},{"OBJECT_NAME":"ONEWEB-0314","OBJECT_ID":"2021-075AB","EPOCH":"2026-05-24T22:07:19.915392","MEAN_MOTION":13.17649319,"ECCENTRICITY":0.0001903,"INCLINATION":87.9163,"RA_OF_ASC_NODE":10.4767,"ARG_OF_PERICENTER":96.2852,"MEAN_ANOMALY":263.8496,"EPHEMERIS_TYPE":0,"CLASSIFICATION_TYPE":"U","NORAD_CAT_ID":49100,"ELEMENT_SET_NO":999,"REV_AT_EPOCH":23050,"BSTAR":8.813800000000002e-05,"MEAN_MOTION_DOT":4.7e-07,"MEAN_MOTION_DDOT":0.0},{"OBJECT_NAME":"ONEWEB-0315","OBJECT_ID":"2021-075AC","EPOCH":"2026-05-24T22:56:53.424960","MEAN_MOTION":13.12441421,"ECCENTRICITY":0.0002165,"INCLINATION":87.8959,"RA_OF_ASC_NODE":355.264,"ARG_OF_PERICENTER":88.7718,"MEAN_ANOMALY":271.3659,"EPHEMERIS_TYPE":0,"CLASSIFICATION_TYPE":"U","NORAD_CAT_ID":49101,"ELEMENT_SET_NO":999,"REV_AT_EPOCH":23212,"BSTAR":0.00096381,"MEAN_MOTION_DOT":3.59e-06,"MEAN_MOTION_DDOT":0.0},{"OBJECT_NAME":"ONEWEB-0316","OBJECT_ID":"2021-075AD","EPOCH":"2026-05-24T22:34:28.362720","MEAN_MOTION":13.18685075,"ECCENTRICITY":0.0001898,"INCLINATION":87.916,"RA_OF_ASC_NODE":340.0842,"ARG_OF_PERICENTER":89.9763,"MEAN_ANOMALY":270.1587,"EPHEMERIS_TYPE":0,"CLASSIFICATION_TYPE":"U","NORAD_CAT_ID":49102,"ELEMENT_SET_NO":999,"REV_AT_EPOCH":23414,"BSTAR":1.0882e-05,"MEAN_MOTION_DOT":1.7e-07,"MEAN_MOTION_DDOT":0.0},{"OBJECT_NAME":"ONEWEB-0317","OBJECT_ID":"2021-075AE","EPOCH":"2026-05-24T23:01:45.986592","MEAN_MOTION":13.124415,"ECCENTRICITY":0.0001076,"INCLINATION":87.8961,"RA_OF_ASC_NODE":355.287,"ARG_OF_PERICENTER":79.9481,"MEAN_ANOMALY":280.1769,"EPHEMERIS_TYPE":0,"CLASSIFICATION_TYPE":"U","NORAD_CAT_ID":49103,"ELEMENT_SET_NO":999,"REV_AT_EPOCH":23214,"BSTAR":0.0012018,"MEAN_MOTION_DOT":4.45e-06,"MEAN_MOTION_DDOT":0.0},{"OBJECT_NAME":"ONEWEB-0318","OBJECT_ID":"2021-075AF","EPOCH":"2026-05-24T22:29:36.811968","MEAN_MOTION":13.18685317,"ECCENTRICITY":0.0002094,"INCLINATION":87.9169,"RA_OF_ASC_NODE":340.0842,"ARG_OF_PERICENTER":90.3247,"MEAN_ANOMALY":269.8125,"EPHEMERIS_TYPE":0,"CLASSIFICATION_TYPE":"U","NORAD_CAT_ID":49104,"ELEMENT_SET_NO":999,"REV_AT_EPOCH":23410,"BSTAR":-0.00011515000000000001,"MEAN_MOTION_DOT":-3.2e-07,"MEAN_MOTION_DDOT":0.0},{"OBJECT_NAME":"ONEWEB-0319","OBJECT_ID":"2021-075AG","EPOCH":"2026-05-24T20:39:49.539456","MEAN_MOTION":13.17651637,"ECCENTRICITY":0.0002354,"INCLINATION":87.9153,"RA_OF_ASC_NODE":10.5071,"ARG_OF_PERICENTER":86.506,"MEAN_ANOMALY":273.634,"EPHEMERIS_TYPE":0,"CLASSIFICATION_TYPE":"U","NORAD_CAT_ID":49105,"ELEMENT_SET_NO":999,"REV_AT_EPOCH":23053,"BSTAR":-4.056100000000001e-05,"MEAN_MOTION_DOT":-3e-08,"MEAN_MOTION_DDOT":0.0},{"OBJECT_NAME":"ONEWEB-0323","OBJECT_ID":"2021-075AH","EPOCH":"2026-05-24T22:34:55.854336","MEAN_MOTION":13.12442662,"ECCENTRICITY":0.0002299,"INCLINATION":87.8961,"RA_OF_ASC_NODE":355.2719,"ARG_OF_PERICENTER":93.3505,"MEAN_ANOMALY":266.7886,"EPHEMERIS_TYPE":0,"CLASSIFICATION_TYPE":"U","NORAD_CAT_ID":49106,"ELEMENT_SET_NO":999,"REV_AT_EPOCH":23150,"BSTAR":0.00014921000000000002,"MEAN_MOTION_DOT":6.6e-07,"MEAN_MOTION_DDOT":0.0},{"OBJECT_NAME":"ONEWEB-0329","OBJECT_ID":"2021-075AJ","EPOCH":"2026-05-24T20:51:58.951584","MEAN_MOTION":13.1765065,"ECCENTRICITY":0.0001859,"INCLINATION":87.9155,"RA_OF_ASC_NODE":10.5061,"ARG_OF_PERICENTER":89.3054,"MEAN_ANOMALY":270.829,"EPHEMERIS_TYPE":0,"CLASSIFICATION_TYPE":"U","NORAD_CAT_ID":49107,"ELEMENT_SET_NO":999,"REV_AT_EPOCH":23051,"BSTAR":1.2898000000000003e-05,"MEAN_MOTION_DOT":1.8e-07,"MEAN_MOTION_DDOT":0.0},{"OBJECT_NAME":"ONEWEB-0330","OBJECT_ID":"2021-075AK","EPOCH":"2026-05-24T21:26:13.778592","MEAN_MOTION":13.17648002,"ECCENTRICITY":0.0001728,"INCLINATION":87.9156,"RA_OF_ASC_NODE":10.5212,"ARG_OF_PERICENTER":92.0404,"MEAN_ANOMALY":268.0926,"EPHEMERIS_TYPE":0,"CLASSIFICATION_TYPE":"U","NORAD_CAT_ID":49108,"ELEMENT_SET_NO":999,"REV_AT_EPOCH":23055,"BSTAR":-1.2966000000000001e-05,"MEAN_MOTION_DOT":8e-08,"MEAN_MOTION_DDOT":0.0},{"OBJECT_NAME":"ONEWEB-0292","OBJECT_ID":"2021-083A","EPOCH":"2026-05-24T22:21:11.240640","MEAN_MOTION":13.13469047,"ECCENTRICITY":0.0001998,"INCLINATION":87.8929,"RA_OF_ASC_NODE":324.8736,"ARG_OF_PERICENTER":92.1095,"MEAN_ANOMALY":268.0263,"EPHEMERIS_TYPE":0,"CLASSIFICATION_TYPE":"U","NORAD_CAT_ID":49186,"ELEMENT_SET_NO":999,"REV_AT_EPOCH":22787,"BSTAR":8.783900000000001e-05,"MEAN_MOTION_DOT":4.5e-07,"MEAN_MOTION_DDOT":0.0},{"OBJECT_NAME":"ONEWEB-0303","OBJECT_ID":"2021-083B","EPOCH":"2026-05-24T22:24:45.692352","MEAN_MOTION":13.18685187,"ECCENTRICITY":0.0002001,"INCLINATION":87.9165,"RA_OF_ASC_NODE":340.0849,"ARG_OF_PERICENTER":90.7859,"MEAN_ANOMALY":269.3503,"EPHEMERIS_TYPE":0,"CLASSIFICATION_TYPE":"U","NORAD_CAT_ID":49187,"ELEMENT_SET_NO":999,"REV_AT_EPOCH":22691,"BSTAR":-0.00010146,"MEAN_MOTION_DOT":-2.7e-07,"MEAN_MOTION_DDOT":0.0},{"OBJECT_NAME":"ONEWEB-0306","OBJECT_ID":"2021-083C","EPOCH":"2026-05-24T22:10:11.466912","MEAN_MOTION":13.18685649,"ECCENTRICITY":0.0001599,"INCLINATION":87.917,"RA_OF_ASC_NODE":340.0735,"ARG_OF_PERICENTER":87.9565,"MEAN_ANOMALY":272.175,"EPHEMERIS_TYPE":0,"CLASSIFICATION_TYPE":"U","NORAD_CAT_ID":49188,"ELEMENT_SET_NO":999,"REV_AT_EPOCH":22695,"BSTAR":-4.4125e-05,"MEAN_MOTION_DOT":-4e-08,"MEAN_MOTION_DDOT":0.0},{"OBJECT_NAME":"ONEWEB-0307","OBJECT_ID":"2021-083D","EPOCH":"2026-05-24T22:12:40.011840","MEAN_MOTION":13.13469273,"ECCENTRICITY":0.0001907,"INCLINATION":87.894,"RA_OF_ASC_NODE":324.8697,"ARG_OF_PERICENTER":94.4126,"MEAN_ANOMALY":265.7221,"EPHEMERIS_TYPE":0,"CLASSIFICATION_TYPE":"U","NORAD_CAT_ID":49189,"ELEMENT_SET_NO":999,"REV_AT_EPOCH":22787,"BSTAR":-0.0003467,"MEAN_MOTION_DOT":-1.14e-06,"MEAN_MOTION_DDOT":0.0}]